CCSDS_OEM_VERS = 2.0
CREATION_DATE = 2026-06-27T00:00:00.000000
ORIGINATOR = KSHANA

META_START
OBJECT_NAME = KSHANA-MEO-1
OBJECT_ID = KSHANA-MEO-1
CENTER_NAME = EARTH
REF_FRAME = EME2000
TIME_SYSTEM = UTC
START_TIME = 2024-01-01T00:00:00.000000
STOP_TIME = 2024-01-01T00:50:00.000000
META_STOP

2024-01-01T00:00:00.000000 18089.467048 14618.532347 12312.176367 -2.666590839 1.107064227 2.636248472
2024-01-01T00:10:00.000000 16420.465459 15224.406243 13843.428639 -2.893055234 0.911228624 2.464611189
2024-01-01T00:20:00.000000 14622.403766 15710.624280 15265.880435 -3.096511412 0.708482620 2.273832272
2024-01-01T00:30:00.000000 12709.569715 16073.533065 16568.515499 -3.275385030 0.500476166 2.065498638
2024-01-01T00:40:00.000000 10697.131420 16310.480413 17741.312165 -3.428317722 0.288894015 1.841335859
2024-01-01T00:50:00.000000 8601.004684 16419.831471 18775.321380 -3.554176997 0.075439908 1.603190758

META_START
OBJECT_NAME = KSHANA-MEO-1
OBJECT_ID = KSHANA-MEO-1
CENTER_NAME = EARTH
REF_FRAME = EME2000
TIME_SYSTEM = UTC
START_TIME = 2024-01-01T01:00:00.000000
STOP_TIME = 2024-01-01T01:50:00.000000
META_STOP

2024-01-01T01:00:00.000000 6437.715157 16400.975403 19662.734005 -3.652063522 -0.138179100 1.353013106
2024-01-01T01:10:00.000000 4224.256906 16254.322764 20396.936927 -3.721315796 -0.350267938 1.092836704
2024-01-01T01:20:00.000000 1977.948958 15981.293847 20972.557714 -3.761512268 -0.559158292 0.824760130
2024-01-01T01:30:00.000000 -283.708687 15584.298370 21385.497678 -3.772470984 -0.763222665 0.550927402
2024-01-01T01:40:00.000000 -2543.178119 15066.706981 21632.953376 -3.754246903 -0.960887586 0.273508817
2024-01-01T01:50:00.000000 -4783.024315 14432.815112 21713.426720 -3.707127039 -1.150645865 -0.005317820
